[{"OBJECT_NAME":"EZIE-C","OBJECT_ID":"2025-052AR","EPOCH":"2026-03-09T16:54:14.963904","MEAN_MOTION":14.96297342,"ECCENTRICITY":0.00032112,"INCLINATION":97.6981,"RA_OF_ASC_NODE":322.3863,"ARG_OF_PERICENTER":161.3597,"MEAN_ANOMALY":198.7743,"EPHEMERIS_TYPE":0,"CLASSIFICATION_TYPE":"U","NORAD_CAT_ID":63249,"ELEMENT_SET_NO":999,"REV_AT_EPOCH":5378,"BSTAR":0.0007072062,"MEAN_MOTION_DOT":7.941e-5,"MEAN_MOTION_DDOT":0},{"OBJECT_NAME":"COSMOS 2251 DEB","OBJECT_ID":"1993-036BRU","EPOCH":"2026-02-21T14:09:45.153216","MEAN_MOTION":14.99001579,"ECCENTRICITY":0.0017259,"INCLINATION":74.0061,"RA_OF_ASC_NODE":146.9269,"ARG_OF_PERICENTER":277.3195,"MEAN_ANOMALY":147.2685,"EPHEMERIS_TYPE":0,"CLASSIFICATION_TYPE":"U","NORAD_CAT_ID":38062,"ELEMENT_SET_NO":999,"REV_AT_EPOCH":64090,"BSTAR":0.0019091,"MEAN_MOTION_DOT":0.00023247,"MEAN_MOTION_DDOT":0}]
